0 ARIANE 44L+ DEB
1 22850U 92021E   13282.39772265 -.00000039  00000-0  68473-2 0  1892
2 22850 003.3589 112.1176 7033246 284.6885 007.2311 02.24700853168147
0 ARIANE 44L+ DEB
1 22850U 92021E   13288.16802407 -.00000332  00000-0 -70917-2 0  1922
2 22850 003.3685 109.9175 7034843 288.9003 354.8998 02.24700063168279
0 ARIANE 44L+ DEB
1 22850U 92021E   13290.40981602 -.00000314  00000-0 -63717-2 0  1938
2 22850 003.3720 109.0694 7034981 290.5219 008.3155 02.24700030168323
0 ARIANE 44L+ DEB
1 22850U 92021E   13294.41646595 -.00000242  00000-0 -59859-2 0  1945
2 22850 003.3787 107.5370 7035490 293.4400 009.3413 02.24700428168419
